start=new Date('2021-11-22T00:00:00.000Z').valueOf();
sats=[{"EPHEMERIS_TYPE":"0","PERIAPSIS":"546.067","CLASSIFICATION_TYPE":"U","SITE":"AFETR","ARG_OF_PERICENTER":"68.0007","OBJECT_ID":"2021-041AU","FILE":"3220887","ELEMENT_SET_NO":"999","NORAD_CAT_ID":"48595","GP_ID":"190210841","SEMIMAJOR_AXIS":"6925.325","DECAY_DATE":null,"ECCENTRICITY":"0.00016220","MEAN_ELEMENT_THEORY":"SGP4","PERIOD":"95.592","APOAPSIS":"548.313","CENTER_NAME":"EARTH","MEAN_MOTION_DOT":"0.00002078","INCLINATION":"53.0568","OBJECT_TYPE":"PAYLOAD","EPOCH":"2021-11-21T19:04:09.473376","TLE_LINE2":"2 48595  53.0568 344.6624 0001622  68.0007 292.1155 15.06407748 29863","MEAN_MOTION":"15.06407748","MEAN_ANOMALY":"292.1155","TIME_SYSTEM":"UTC","RCS_SIZE":"LARGE","REF_FRAME":"TEME","TLE_LINE1":"1 48595U 21041AU  21325.79455409  .00002078  00000-0  15836-3 0  9998","RA_OF_ASC_NODE":"344.6624","REV_AT_EPOCH":"2986","MEAN_MOTION_DDOT":"0.0000000000000","OBJECT_NAME":"STARLINK-2252","LAUNCH_DATE":"2021-05-15","COUNTRY_CODE":"US","BSTAR":"0.00015836000000"},{"REF_FRAME":"TEME","RCS_SIZE":"LARGE","TLE_LINE1":"1 48596U 21041AV  21325.48495107  .00001535  00000-0  12194-3 0  9995","RA_OF_ASC_NODE":"346.0507","MEAN_MOTION_DDOT":"0.0000000000000","OBJECT_NAME":"STARLINK-2253","REV_AT_EPOCH":"2900","LAUNCH_DATE":"2021-05-15","BSTAR":"0.00012194000000","COUNTRY_CODE":"US","PERIOD":"95.592","MEAN_MOTION_DOT":"0.00001535","CENTER_NAME":"EARTH","APOAPSIS":"548.219","INCLINATION":"53.0555","OBJECT_TYPE":"PAYLOAD","EPOCH":"2021-11-21T11:38:19.772448","TLE_LINE2":"2 48596  53.0555 346.0507 0001435  58.6752 301.4378 15.06396171 29004","MEAN_MOTION":"15.06396171","TIME_SYSTEM":"UTC","MEAN_ANOMALY":"301.4378","FILE":"3220686","ELEMENT_SET_NO":"999","NORAD_CAT_ID":"48596","GP_ID":"190205628","DECAY_DATE":null,"SEMIMAJOR_AXIS":"6925.360","MEAN_ELEMENT_THEORY":"SGP4","ECCENTRICITY":"0.00014350","PERIAPSIS":"546.232","EPHEMERIS_TYPE":"0","CLASSIFICATION_TYPE":"U","SITE":"AFETR","ARG_OF_PERICENTER":"58.6752","OBJECT_ID":"2021-041AV"},{"MEAN_ELEMENT_THEORY":"SGP4","ECCENTRICITY":"0.00015820","DECAY_DATE":null,"SEMIMAJOR_AXIS":"6925.349","GP_ID":"190210835","NORAD_CAT_ID":"48597","ELEMENT_SET_NO":"999","FILE":"3220887","OBJECT_ID":"2021-041AW","ARG_OF_PERICENTER":"62.3557","SITE":"AFETR","CLASSIFICATION_TYPE":"U","PERIAPSIS":"546.119","EPHEMERIS_TYPE":"0","BSTAR":"0.00014405000000","COUNTRY_CODE":"US","LAUNCH_DATE":"2021-05-15","MEAN_MOTION_DDOT":"0.0000000000000","OBJECT_NAME":"STARLINK-2255","REV_AT_EPOCH":"2985","RA_OF_ASC_NODE":"344.8331","TLE_LINE1":"1 48597U 21041AW  21325.75770064  .00001865  00000-0  14405-3 0  9997","REF_FRAME":"TEME","RCS_SIZE":"LARGE","TIME_SYSTEM":"UTC","MEAN_ANOMALY":"297.7593","TLE_LINE2":"2 48597  53.0572 344.8331 0001582  62.3557 297.7593 15.06399754 29852","MEAN_MOTION":"15.06399754","EPOCH":"2021-11-21T18:11:05.335296","INCLINATION":"53.0572","OBJECT_TYPE":"PAYLOAD","MEAN_MOTION_DOT":"0.00001865","CENTER_NAME":"EARTH","APOAPSIS":"548.310","PERIOD":"95.592"},{"EPOCH":"2021-11-21T18:16:24.351744","TIME_SYSTEM":"UTC","MEAN_ANOMALY":"286.1902","TLE_LINE2":"2 48598  53.0552 344.8172 0001311  73.9232 286.1902 15.06395897 29043","MEAN_MOTION":"15.06395897","PERIOD":"95.592","OBJECT_TYPE":"PAYLOAD","INCLINATION":"53.0552","MEAN_MOTION_DOT":"0.00001582","CENTER_NAME":"EARTH","APOAPSIS":"548.134","LAUNCH_DATE":"2021-05-15","BSTAR":"0.00012510000000","COUNTRY_CODE":"US","TLE_LINE1":"1 48598U 21041AX  21325.76139296  .00001582  00000-0  12510-3 0  9996","REF_FRAME":"TEME","RCS_SIZE":"LARGE","OBJECT_NAME":"STARLINK-2256","MEAN_MOTION_DDOT":"0.0000000000000","REV_AT_EPOCH":"2904","RA_OF_ASC_NODE":"344.8172","SITE":"AFETR","OBJECT_ID":"2021-041AX","ARG_OF_PERICENTER":"73.9232","PERIAPSIS":"546.318","EPHEMERIS_TYPE":"0","CLASSIFICATION_TYPE":"U","MEAN_ELEMENT_THEORY":"SGP4","ECCENTRICITY":"0.00013110","DECAY_DATE":null,"SEMIMAJOR_AXIS":"6925.361","ELEMENT_SET_NO":"999","FILE":"3220887","GP_ID":"190210386","NORAD_CAT_ID":"48598"},{"COUNTRY_CODE":"US","BSTAR":"0.00013798000000","LAUNCH_DATE":"2021-05-15","REV_AT_EPOCH":"3020","OBJECT_NAME":"STARLINK-2274","MEAN_MOTION_DDOT":"0.0000000000000","RA_OF_ASC_NODE":"319.9793","TLE_LINE1":"1 48599U 21041AY  21325.72132756  .00001774  00000-0  13798-3 0  9999","RCS_SIZE":"LARGE","REF_FRAME":"TEME","MEAN_ANOMALY":"301.3362","TIME_SYSTEM":"UTC","TLE_LINE2":"2 48599  53.0558 319.9793 0001812  58.7805 301.3362 15.06394276 30205","MEAN_MOTION":"15.06394276","EPOCH":"2021-11-21T17:18:42.701184","OBJECT_TYPE":"PAYLOAD","INCLINATION":"53.0558","APOAPSIS":"548.486","CENTER_NAME":"EARTH","MEAN_MOTION_DOT":"0.00001774","PERIOD":"95.593","ECCENTRICITY":"0.00018120","MEAN_ELEMENT_THEORY":"SGP4","SEMIMAJOR_AXIS":"6925.366","DECAY_DATE":null,"GP_ID":"190210855","NORAD_CAT_ID":"48599","ELEMENT_SET_NO":"999","FILE":"3220888","OBJECT_ID":"2021-041AY","ARG_OF_PERICENTER":"58.7805","SITE":"AFETR","CLASSIFICATION_TYPE":"U","EPHEMERIS_TYPE":"0","PERIAPSIS":"545.976"},{"TLE_LINE2":"2 48600  53.0533 336.0093 0001563  54.3983 305.7151 15.06390618 29956","MEAN_MOTION":"15.06390618","TIME_SYSTEM":"UTC","MEAN_ANOMALY":"305.7151","EPOCH":"2021-11-21T11:50:16.800864","MEAN_MOTION_DOT":"-0.00000143","CENTER_NAME":"EARTH","APOAPSIS":"548.325","INCLINATION":"53.0533","OBJECT_TYPE":"PAYLOAD","PERIOD":"95.593","BSTAR":"0.00000932190000","COUNTRY_CODE":"US","LAUNCH_DATE":"2021-05-15","RA_OF_ASC_NODE":"336.0093","MEAN_MOTION_DDOT":"0.0000000000000","OBJECT_NAME":"STARLINK-2275","REV_AT_EPOCH":"2995","REF_FRAME":"TEME","RCS_SIZE":"LARGE","TLE_LINE1":"1 48600U 21041AZ  21325.49325001 -.00000143  00000-0  93219-5 0  9991","ARG_OF_PERICENTER":"54.3983","OBJECT_ID":"2021-041AZ","SITE":"AFETR","CLASSIFICATION_TYPE":"U","PERIAPSIS":"546.160","EPHEMERIS_TYPE":"0","DECAY_DATE":null,"SEMIMAJOR_AXIS":"6925.377","MEAN_ELEMENT_THEORY":"SGP4","ECCENTRICITY":"0.00015630","NORAD_CAT_ID":"48600","GP_ID":"190205331","FILE":"3220686","ELEMENT_SET_NO":"999"},{"CLASSIFICATION_TYPE":"U","EPHEMERIS_TYPE":"0","PERIAPSIS":"546.023","OBJECT_ID":"2021-041BB","ARG_OF_PERICENTER":"69.3440","SITE":"AFETR","GP_ID":"190206214","NORAD_CAT_ID":"48602","ELEMENT_SET_NO":"999","FILE":"3220686","ECCENTRICITY":"0.00017020","MEAN_ELEMENT_THEORY":"SGP4","SEMIMAJOR_AXIS":"6925.337","DECAY_DATE":null,"INCLINATION":"53.0443","OBJECT_TYPE":"PAYLOAD","CENTER_NAME":"EARTH","APOAPSIS":"548.381","MEAN_MOTION_DOT":"0.00001453","PERIOD":"95.592","MEAN_ANOMALY":"290.7732","TIME_SYSTEM":"UTC","TLE_LINE2":"2 48602  53.0443 321.3657 0001702  69.3440 290.7732 15.06403769 30143","MEAN_MOTION":"15.06403769","EPOCH":"2021-11-21T10:08:44.329056","REV_AT_EPOCH":"3014","OBJECT_NAME":"STARLINK-2713","MEAN_MOTION_DDOT":"0.0000000000000","RA_OF_ASC_NODE":"321.3657","TLE_LINE1":"1 48602U 21041BB  21325.42273529  .00001453  00000-0  11644-3 0  9997","RCS_SIZE":"LARGE","REF_FRAME":"TEME","COUNTRY_CODE":"US","BSTAR":"0.00011644000000","LAUNCH_DATE":"2021-05-15"},{"PERIOD":"95.593","APOAPSIS":"548.476","CENTER_NAME":"EARTH","MEAN_MOTION_DOT":"-0.00000624","INCLINATION":"53.0509","OBJECT_TYPE":"PAYLOAD","EPOCH":"2021-11-21T06:27:47.023200","MEAN_MOTION":"15.06388971","TLE_LINE2":"2 48603  53.0509 317.0357 0001774  55.9956 304.1201 15.06388971 30203","MEAN_ANOMALY":"304.1201","TIME_SYSTEM":"UTC","RCS_SIZE":"LARGE","REF_FRAME":"TEME","TLE_LINE1":"1 48603U 21041BC  21325.26929425 -.00000624  00000-0 -22983-4 0  9993","RA_OF_ASC_NODE":"317.0357","REV_AT_EPOCH":"3020","MEAN_MOTION_DDOT":"0.0000000000000","OBJECT_NAME":"STARLINK-2714","LAUNCH_DATE":"2021-05-15","COUNTRY_CODE":"US","BSTAR":"-0.00002298300000","EPHEMERIS_TYPE":"0","PERIAPSIS":"546.019","CLASSIFICATION_TYPE":"U","SITE":"AFETR","ARG_OF_PERICENTER":"55.9956","OBJECT_ID":"2021-041BC","FILE":"3220686","ELEMENT_SET_NO":"999","NORAD_CAT_ID":"48603","GP_ID":"190205457","SEMIMAJOR_AXIS":"6925.382","DECAY_DATE":null,"ECCENTRICITY":"0.00017740","MEAN_ELEMENT_THEORY":"SGP4"},{"ECCENTRICITY":"0.00016000","MEAN_ELEMENT_THEORY":"SGP4","SEMIMAJOR_AXIS":"6925.370","DECAY_DATE":null,"GP_ID":"190205877","NORAD_CAT_ID":"48604","ELEMENT_SET_NO":"999","FILE":"3220686","OBJECT_ID":"2021-041BD","ARG_OF_PERICENTER":"66.1864","SITE":"AFETR","CLASSIFICATION_TYPE":"U","EPHEMERIS_TYPE":"0","PERIAPSIS":"546.127","COUNTRY_CODE":"US","BSTAR":"-0.00000292100000","LAUNCH_DATE":"2021-05-15","REV_AT_EPOCH":"2981","MEAN_MOTION_DDOT":"0.0000000000000","OBJECT_NAME":"STARLINK-2757","RA_OF_ASC_NODE":"346.1158","TLE_LINE1":"1 48604U 21041BD  21325.47020524 -.00000325  00000-0 -29210-5 0  9998","RCS_SIZE":"LARGE","REF_FRAME":"TEME","MEAN_ANOMALY":"293.9292","TIME_SYSTEM":"UTC","TLE_LINE2":"2 48604  53.0567 346.1158 0001600  66.1864 293.9292 15.06392977 29811","MEAN_MOTION":"15.06392977","EPOCH":"2021-11-21T11:17:05.732736","INCLINATION":"53.0567","OBJECT_TYPE":"PAYLOAD","CENTER_NAME":"EARTH","APOAPSIS":"548.343","MEAN_MOTION_DOT":"-0.00000325","PERIOD":"95.593"},{"SITE":"AFETR","ARG_OF_PERICENTER":"53.3753","OBJECT_ID":"2021-044A","EPHEMERIS_TYPE":"0","PERIAPSIS":"545.962","CLASSIFICATION_TYPE":"U","SEMIMAJOR_AXIS":"6925.380","DECAY_DATE":null,"ECCENTRICITY":"0.00018520","MEAN_ELEMENT_THEORY":"SGP4","FILE":"3220686","ELEMENT_SET_NO":"999","NORAD_CAT_ID":"48638","GP_ID":"190206008","EPOCH":"2021-11-21T10:07:23.865600","TLE_LINE2":"2 48638  53.0562 321.3263 0001852  53.3753 306.7406 15.06389783 27256","MEAN_MOTION":"15.06389783","MEAN_ANOMALY":"306.7406","TIME_SYSTEM":"UTC","PERIOD":"95.593","APOAPSIS":"548.527","CENTER_NAME":"EARTH","MEAN_MOTION_DOT":"-0.00000532","OBJECT_TYPE":"PAYLOAD","INCLINATION":"53.0562","LAUNCH_DATE":"2021-05-26","COUNTRY_CODE":"US","BSTAR":"-0.00001681200000","RCS_SIZE":"LARGE","REF_FRAME":"TEME","TLE_LINE1":"1 48638U 21044A   21325.42180400 -.00000532  00000-0 -16812-4 0  9996","RA_OF_ASC_NODE":"321.3263","REV_AT_EPOCH":"2725","MEAN_MOTION_DDOT":"0.0000000000000","OBJECT_NAME":"STARLINK-2758"}];
